YAOGAN-30 03A           
1 43028U 17075A   26068.67863850  .00004172  00000+0  31199-3 0  9991
2 43028  34.9939 156.9097 0001741 176.2032 183.8689 15.02242801452275
STARLINK-5996           
1 57227U 23094K   26067.99159252 -.00000363  00000+0 -11781-4 0  9999
2 57227  43.0047  34.2324 0001363 267.6245  92.4441 15.02537614147017
