[{"OBJECT_NAME":"YAOGAN-30 03A","OBJECT_ID":"2017-075A","EPOCH":"2026-03-09T16:17:14.366400","MEAN_MOTION":15.02242801,"ECCENTRICITY":0.00017413,"INCLINATION":34.9939,"RA_OF_ASC_NODE":156.9097,"ARG_OF_PERICENTER":176.2032,"MEAN_ANOMALY":183.8689,"EPHEMERIS_TYPE":0,"CLASSIFICATION_TYPE":"U","NORAD_CAT_ID":43028,"ELEMENT_SET_NO":999,"REV_AT_EPOCH":45227,"BSTAR":0.00031198587,"MEAN_MOTION_DOT":4.172e-5,"MEAN_MOTION_DDOT":0},{"OBJECT_NAME":"STARLINK-5996","OBJECT_ID":"2023-094K","EPOCH":"2026-03-08T23:47:53.593728","MEAN_MOTION":15.02537614,"ECCENTRICITY":0.00013634,"INCLINATION":43.0047,"RA_OF_ASC_NODE":34.2324,"ARG_OF_PERICENTER":267.6245,"MEAN_ANOMALY":92.4441,"EPHEMERIS_TYPE":0,"CLASSIFICATION_TYPE":"U","NORAD_CAT_ID":57227,"ELEMENT_SET_NO":999,"REV_AT_EPOCH":14701,"BSTAR":-1.178135e-5,"MEAN_MOTION_DOT":-3.63e-6,"MEAN_MOTION_DDOT":0}]
